{
    "links": {
        "self": "http://www.neowsapp.com/rest/v1/neo/54051401?api_key=iIulBulltgU6a56xZRHN4H3l9WmuAYTsLGpBGhQ2"
    },
    "id": "54051401",
    "neo_reference_id": "54051401",
    "name": "(2020 QY5)",
    "designation": "2020 QY5",
    "nasa_jpl_url": "http://ssd.jpl.nasa.gov/sbdb.cgi?sstr=54051401",
    "absolute_magnitude_h": 22.784,
    "estimated_diameter": {
        "kilometers": {
            "estimated_diameter_min": 0.0737488031,
            "estimated_diameter_max": 0.1649073371
        },
        "meters": {
            "estimated_diameter_min": 73.7488031416,
            "estimated_diameter_max": 164.9073370839
        },
        "miles": {
            "estimated_diameter_min": 0.0458253676,
            "estimated_diameter_max": 0.102468637
        },
        "feet": {
            "estimated_diameter_min": 241.9580232992,
            "estimated_diameter_max": 541.0345877984
        }
    },
    "is_potentially_hazardous_asteroid": false,
    "close_approach_data": [
        {
            "close_approach_date": "2020-08-12",
            "close_approach_date_full": "2020-Aug-12 23:25",
            "epoch_date_close_approach": 1597274700000,
            "relative_velocity": {
                "kilometers_per_second": "17.7511262056",
                "kilometers_per_hour": "63904.0543401672",
                "miles_per_hour": "39707.4942093111"
            },
            "miss_distance": {
                "astronomical": "0.1507653013",
                "lunar": "58.6477022057",
                "kilometers": "22554167.944388231",
                "miles": "14014510.0991743478"
            },
            "orbiting_body": "Earth"
        }
    ],
    "orbital_data": {
        "orbit_id": "2",
        "orbit_determination_date": "2020-08-28 09:17:20",
        "first_observation_date": "2020-08-23",
        "last_observation_date": "2020-08-27",
        "data_arc_in_days": 4,
        "observations_used": 27,
        "orbit_uncertainty": "9",
        "minimum_orbit_intersection": ".0361299",
        "jupiter_tisserand_invariant": "3.267",
        "epoch_osculation": "2459085.5",
        "eccentricity": ".7297122665272296",
        "semi_major_axis": "2.182064540580283",
        "inclination": "4.641274060159021",
        "ascending_node_longitude": "304.3168485049222",
        "orbital_period": "1177.334348662107",
        "perihelion_distance": ".5897852789647465",
        "perihelion_argument": "297.1071320664296",
        "aphelion_distance": "3.774343802195819",
        "perihelion_time": "2459029.569032153303",
        "mean_anomaly": "17.10231970017014",
        "mean_motion": ".3057755007395266",
        "equinox": "J2000",
        "orbit_class": {
            "orbit_class_type": "APO",
            "orbit_class_description": "Near-Earth asteroid orbits which cross the Earth’s orbit similar to that of 1862 Apollo",
            "orbit_class_range": "a (semi-major axis) > 1.0 AU; q (perihelion) < 1.017 AU"
        }
    },
    "is_sentry_object": false
}